STARLINK-1634           
1 46152U 20057AM  24028.59817183 -.00000335  00000+0 -36107-5 0  9994
2 46152  53.0541 178.2175 0001130  95.6320 264.4798 15.06391088189840
STARLINK-1636           
1 46153U 20057AN  24028.62946741 -.00005504  00000+0 -35050-3 0  9999
2 46153  53.0567 158.0409 0002369 142.6565 217.4589 15.06435718190784
STARLINK-1642           
1 46154U 20057AP  24028.57326867 -.00000977  00000+0 -46686-4 0  9992
2 46154  53.0537 168.2963 0000972  89.9464 270.1637 15.06405962189987
STARLINK-1667           
1 46155U 20057AQ  24028.59815906  .00004924  00000+0  34916-3 0  9998
2 46155  53.0539 138.1852 0001339  94.8127 265.3015 15.06408196191646
STARLINK-1545           
1 46156U 20057AR  24028.58893828  .00001704  00000+0  13324-3 0  9990
2 46156  53.0541 158.2191 0001159  91.1216 268.9905 15.06407149191372
STARLINK-1587           
1 46157U 20057AS  24028.57603181  .00001850  00000+0  14301-3 0  9999
2 46157  53.0549 138.2836 0001200  99.2037 260.9088 15.06417509190400
STARLINK-1589           
1 46158U 20057AT  24028.57235192  .00002873  00000+0  21159-3 0  9998
2 46158  53.0554 138.3009 0001358  90.7427 269.3718 15.06414070191665
STARLINK-1595           
1 46159U 20057AU  24028.67925467  .00003591  00000+0  25981-3 0  9996
2 46159  53.0536 177.8204 0001413  74.2566 285.8578 15.06400713190513
STARLINK-1598           
1 46160U 20057AV  24028.73636950  .00001121  00000+0  94084-4 0  9999
2 46160  53.0543 157.5650 0001187  93.5763 266.5361 15.06411720190813
STARLINK-1600           
1 46161U 20057AW  24028.58160025 -.00001346  00000+0 -71534-4 0  9994
2 46161  53.0552 158.2502 0001548  83.8556 276.2609 15.06377958191370
STARLINK-1603           
1 46162U 20057AX  24028.58525134  .00001248  00000+0  10264-3 0  9992
2 46162  53.0550 158.2384 0001373  97.2368 262.8777 15.06403132191385
STARLINK-1610           
1 46163U 20057AY  24028.58340666  .00004312  00000+0  30802-3 0  9993
2 46163  53.0536 138.2500 0001356  87.0333 273.0811 15.06417522190401
STARLINK-1612           
1 46164U 20057AZ  24028.57972470  .00007129  00000+0  49679-3 0  9998
2 46164  53.0538 138.2667 0001437  87.1012 273.0142 15.06414227191668
STARLINK-1613           
1 46165U 20057BA  24028.44179145  .00047657  00000+0  82467-3 0  9995
2 46165  53.0548  82.0576 0002496  14.1738 345.9340 15.50486381191204
STARLINK-1615           
1 46166U 20057BB  24028.69339121 -.00107886  00000+0 -70970-2 0  9993
2 46166  53.0542 177.7097 0001668  75.6432 284.4743 15.07611338190524
STARLINK-1626           
1 46167U 20057BC  24028.64607422  .00001949  00000+0  14967-3 0  9997
2 46167  53.0551 177.9675 0001356  99.5292 260.5850 15.06404872190517
STARLINK-1627           
1 46168U 20057BD  24028.55854421  .00008276  00000+0  57361-3 0  9996
2 46168  53.0546 128.4443 0001417  93.0770 267.0381 15.06413706190533
STARLINK-1628           
1 46169U 20057BE  24028.79355859  .00003040  00000+0  22286-3 0  9996
2 46169  53.0534 177.6902 0001298  83.2303 276.8834 15.06407784190470
STARLINK-1633           
1 46171U 20057BG  24028.62210471  .00001828  00000+0  14154-3 0  9998
2 46171  53.0557 158.0727 0001551  83.2568 276.8597 15.06406656191385
STARLINK-1635           
1 46172U 20057BH  24028.57049787  .00003062  00000+0  22440-3 0  9992
2 46172  53.0546 158.3046 0001242  83.0693 277.0437 15.06394877191371
STARLINK-1640           
1 46173U 20057BJ  24028.81562190  .00007276  00000+0  50656-3 0  9999
2 46173  53.0536 177.2034 0001376  78.7688 281.3455 15.06418868190533
STARLINK-1641           
1 46174U 20057BK  24028.62395745  .00005118  00000+0  36209-3 0  9990
2 46174  53.0546 178.0636 0001386  86.3938 273.7209 15.06412318189844
STARLINK-1734           
1 46325U 20062A   24028.76817553  .00001202  00000+0  99597-4 0  9995
2 46325  53.0550 192.4168 0001308  88.2180 271.8959 15.06396966189336
STARLINK-1654           
1 46326U 20062B   24028.83225268 -.00000195  00000+0  57804-5 0  9997
2 46326  53.0525 237.3701 0001552 104.2000 255.9161 15.06393080188300
STARLINK-1673           
1 46327U 20062C   24028.78798898  .00000355  00000+0  42701-4 0  9992
2 46327  53.0546 237.3306 0001677 114.2666 245.8499 15.06399332188298
STARLINK-1686           
1 46328U 20062D   24027.83885699  .00003032  00000+0  22238-3 0  9991
2 46328  53.0533 221.5920 0001188  96.8477 263.2647 15.06389510188425
STARLINK-1695           
1 46329U 20062E   24028.80089168 -.00000279  00000+0  19548-6 0  9991
2 46329  53.0541 217.2651 0001660 105.7717 254.3455 15.06394864188572
STARLINK-1710           
1 46330U 20062F   24028.78985398  .00009669  00000+0  66702-3 0  9992
2 46330  53.0524 217.3255 0001404  91.9623 268.1527 15.06404151188400
STARLINK-1719           
1 46331U 20062G   24028.82485419 -.00000129  00000+0  10234-4 0  9990
2 46331  53.0550 237.1680 0001598  98.1976 261.9194 15.06392732188307
STARLINK-1721           
1 46332U 20062H   24028.76718126  .00020503  00000+0  76239-3 0  9991
2 46332  53.0372 204.3891 0002184  62.0550 298.0669 15.27512660188765
STARLINK-1723           
1 46333U 20062J   24028.58526725  .00001502  00000+0  11972-3 0  9995
2 46333  53.0531 238.2428 0001357  90.6445 269.4700 15.06394837188080
STARLINK-1725           
1 46334U 20062K   24028.78618113 -.00000227  00000+0  36868-5 0  9998
2 46334  53.0534 217.6197 0001429 105.8300 254.2847 15.06392989188571
STARLINK-1727           
1 46335U 20062L   24028.81378582 -.00000744  00000+0 -31063-4 0  9992
2 46335  53.0529 237.2146 0001346  97.5600 262.5542 15.06399084188304
STARLINK-1738           
1 46336U 20062M   24028.80457921 -.00000361  00000+0 -53249-5 0  9993
2 46336  53.0550 217.2576 0001662 109.0014 251.1155 15.06393078188584
STARLINK-1750           
1 46337U 20062N   24028.48757342 -.00000252  00000+0  19811-5 0  9993
2 46337  53.0540 218.6777 0001717 116.8005 243.3160 15.06402573188354
STARLINK-1752           
1 46338U 20062P   24028.80272392 -.00001059  00000+0 -52216-4 0  9999
2 46338  53.0528 237.2562 0001551 111.3583 248.7571 15.06403907188297
STARLINK-1759           
1 46340U 20062R   24028.77733040 -.00000161  00000+0  81207-5 0  9995
2 46340  53.0535 237.3899 0001556 114.5990 245.5160 15.04763897188298
STARLINK-1760           
1 46341U 20062S   24028.51707743  .00002397  00000+0  17971-3 0  9996
2 46341  53.0529 218.5521 0001818  72.2300 287.8887 15.06405109188365
STARLINK-1762           
1 46342U 20062T   24028.82852862 -.00004439  00000+0 -27931-3 0  9992
2 46342  53.0528 237.1514 0001523  87.4987 272.6176 15.06395858188302
STARLINK-1764           
1 46343U 20062U   24028.55762409  .00000475  00000+0  50764-4 0  9995
2 46343  53.0526 218.3613 0001238  93.9174 266.1956 15.06389696188368
STARLINK-1765           
1 46344U 20062V   24028.50971174  .00004037  00000+0  28977-3 0  9990
2 46344  53.0508 218.5841 0001147 104.2125 255.8992 15.06401123188359
STARLINK-1767           
1 46345U 20062W   24028.57788747  .00000776  00000+0  70972-4 0  9999
2 46345  53.0533 238.2798 0001681  71.6246 288.4926 15.06398740188081
STARLINK-1547           
1 46347U 20062Y   24028.60230956  .00002524  00000+0  18830-3 0  9996
2 46347  53.0531 193.1646 0001217  94.2650 265.8478 15.06399265188700
STARLINK-1553           
1 46348U 20062Z   24028.51338281  .00000232  00000+0  34467-4 0  9996
2 46348  53.0541 218.5622 0001328 100.9068 259.2070 15.06399002188354
STARLINK-1575           
1 46349U 20062AA  24028.44381078  .00002455  00000+0  18362-3 0  9995
2 46349  53.0528 193.8763 0001171  93.1330 266.9793 15.06398828188691
STARLINK-1617           
1 46350U 20062AB  24028.80641214 -.00001094  00000+0 -54558-4 0  9996
2 46350  53.0530 237.2473 0001627 119.6945 240.4206 15.06398350188303
STARLINK-1646           
1 46351U 20062AC  24028.81194770 -.00000568  00000+0 -19246-4 0  9998
2 46351  53.0543 217.2211 0001388 113.9900 246.1235 15.06400839188589
STARLINK-1653           
1 46352U 20062AD  24028.79352898  .00001184  00000+0  98373-4 0  9994
2 46352  53.0525 217.3085 0001410  95.5138 264.6011 15.06406697188589
STARLINK-1656           
1 46353U 20062AE  24028.79166954 -.00000937  00000+0 -44012-4 0  9999
2 46353  53.0521 237.3127 0001628 119.8217 240.2934 15.06397143188291
STARLINK-1657           
1 46354U 20062AF  24027.98446370  .00002563  00000+0  19090-3 0  9995
2 46354  53.0524 240.9415 0001918  80.7818 279.3388 15.06402230187996
STARLINK-1661           
1 46355U 20062AG  24028.82116067  .00000106  00000+0  25997-4 0  9992
2 46355  53.0524 237.1809 0001343  75.1487 284.9651 15.06398615188306
STARLINK-1665           
1 46356U 20062AH  24028.83590396 -.00000216  00000+0  43995-5 0  9997
2 46356  53.0524 237.1506 0001424 114.4929 245.6208 15.06403519188301
STARLINK-1666           
1 46357U 20062AJ  24028.83038374  .00001304  00000+0  10647-3 0  9995
2 46357  53.0543 217.1358 0001404  87.3760 272.7390 15.06389145188586
STARLINK-1690           
1 46358U 20062AK  24028.81009833 -.00000830  00000+0 -36851-4 0  9993
2 46358  53.0532 237.2246 0001301  73.5857 286.5275 15.06397690188303
STARLINK-1707           
1 46359U 20062AL  24028.72395923  .00003817  00000+0  27493-3 0  9999
2 46359  53.0537 192.6149 0001048  95.9118 264.1990 15.06407035188919
STARLINK-1713           
1 46360U 20062AM  24028.67971171  .00001013  00000+0  86881-4 0  9993
2 46360  53.0545 192.8178 0001595  97.2315 262.8855 15.06399096188917
STARLINK-1722           
1 46361U 20062AN  24027.85311862  .00002899  00000+0  21346-3 0  9995
2 46361  53.0538 196.5109 0001240  75.3080 284.8046 15.06398490188775
STARLINK-1726           
1 46362U 20062AP  24028.82715126  .00001206  00000+0  99857-4 0  9999
2 46362  53.0538 192.1542 0001394  96.8121 263.3027 15.06397318188930
STARLINK-1739           
1 46363U 20062AQ  24028.68613058  .00001135  00000+0  95070-4 0  9999
2 46363  53.0537 192.7778 0001169  96.0249 264.0873 15.06406361188880
